LEMUR-1                 
1 40044U 14033AL  26188.36969978  .00001471  00000+0  17399-3 0  9999
2 40044  97.7901 337.7295 0048429  13.6614 346.5900 14.85321522648469
LEMUR-2-GREENBERG       
1 42837U 17042N   26188.73183374  .00010951  00000+0  35669-3 0  9996
2 42837  97.3832   9.2717 0007164 291.5288  68.5190 15.31988787491535
LEMUR-2-ANDIS           
1 42838U 17042P   26187.73544482  .00017878  00000+0  51664-3 0  9995
2 42838  97.3685   8.5318 0007107 293.7973  66.2525 15.35678970491455
LEMUR-2-MONSON          
1 42839U 17042Q   26188.45814130  .00010309  00000+0  37280-3 0  9996
2 42839  97.4095   8.9398 0005146 281.0533  79.0128 15.28615242491262
LEMUR-2-FURIAUS         
1 42840U 17042R   26188.73977744  .00011334  00000+0  38105-3 0  9996
2 42840  97.3781   7.1882 0006573 358.8264   1.2961 15.30959490491354
LEMUR-2-PETERG          
1 42841U 17042S   26188.44860667  .00016045  00000+0  47712-3 0  9998
2 42841  97.4001  13.5239 0002862 258.0828 102.0094 15.34821414491548
LEMUR-2-DEMBITZ         
1 42842U 17042T   26187.45219817  .00017223  00000+0  57818-3 0  9991
2 42842  97.3834   8.9463 0005291 313.9812  46.0993 15.30918269491290
LEMUR-2-ZACHARY         
1 42845U 17042W   26188.76866856  .00036347  00000+0  59972-3 0  9991
2 42845  97.3592  20.8688 0002324 287.1749  72.9249 15.52194188492395
LEMUR-2-AMANDA-SVANTE   
1 48269U 21034B   26188.76255922  .00023316  00000+0  67410-3 0  9997
2 48269  97.5748 267.6079 0004103 160.6097 199.5303 15.35628121284216
LEMUR-2-SPECIAL-K       
1 48273U 21034F   26188.76522161  .00175740  00000+0  13220-2 0  9992
2 48273  97.5628 277.2182 0005799 219.6386 140.4453 15.72000030284910
LEMUR-2-EMBRIONOVIS     
1 56970U 23084AQ  26188.37340875  .00009790  00000+0  26323-3 0  9999
2 56970  97.6318 333.3577 0007751 236.9428 123.1072 15.38085565170783
LEMUR-2-DEVERILL-M-T    
1 57391U 23100F   26188.69846859  .00016121  00000+0  39570-3 0  9998
2 57391  99.4460 233.3957 0004797 329.3522  30.7437 15.40821036164403
LEMUR-2-BASS            
1 58259U 23174D   26188.76227032  .00011961  00000+0  26567-3 0  9996
2 58259  97.3840 273.7712 0007968 100.4871 259.7275 15.43815088148533
LEMUR-2-JK0903EM1407    
1 58336U 23174CJ  26188.77314975  .00018867  00000+0  30614-3 0  9996
2 58336  97.3916 279.8389 0004240  57.6840 302.4823 15.52784710148924
LEMUR-2-MJR092620       
1 58340U 23174CN  26188.75140127  .00013318  00000+0  27774-3 0  9994
2 58340  97.3969 279.1695 0006040  54.9208 305.2607 15.45666061148828
LEMUR-2-NIMBUS2000      
1 58899U 24022A   26188.02174236  .00016668  00000+0  40709-3 0  9998
2 58899  97.4093  38.2803 0009530  55.1826 305.0316 15.40867104135329
LEMUR-2-VALHALLA        
1 58900U 24022B   26188.02345245  .00011733  00000+0  29263-3 0  9991
2 58900  97.4094  38.2595 0010016  51.0671 309.1466 15.40309483135327
LEMUR-2-CAEL            
1 58903U 24022E   26188.08115866  .00013015  00000+0  31040-3 0  9995
2 58903  97.4077  39.2893 0007978  37.3970 322.7831 15.41661151135405
LEMUR-2-JOHNNYTRUONG    
1 59146U 24043BA  26188.40390914  .00033713  00000+0  38549-3 0  9991
2 59146  97.5392 341.3839 0004358 116.1045 244.0662 15.62091018131193
LEMUR-2-TOMATOKECHUP    
1 60471U 24149D   26188.75549897  .00007285  00000+0  20696-3 0  9994
2 60471  97.3789 270.8599 0002964 136.0140 224.1341 15.36476705105321
LEMUR-2-STELLA          
1 60533U 24149BT  26188.72940021  .00006963  00000+0  40628-3 0  9993
2 60533  97.6725 271.2795 0001085 110.8290 249.3056 15.12265521103602
LEMUR-2-MARHISYAM       
1 60536U 24149BW  26188.71740242  .00007643  00000+0  45283-3 0  9996
2 60536  97.6872 271.7371 0002763  80.2006 279.9535 15.11678961103585
LEMUR-2-AHMED-ASRAR     
1 60576U 24149DN  26188.79755872  .00007953  00000+0  45170-3 0  9992
2 60576  97.6994 273.9913 0000625 254.8296 105.2865 15.13196677103684
LEMUR-2-LLOYD           
1 60577U 24149DP  26188.46016496  .00006420  00000+0  40278-3 0  9991
2 60577  97.6734 269.6046 0004910  90.2019 269.9772 15.09650711103451
LEMUR-2-SQUIRRELCOMM    
1 60578U 24149DQ  26188.17155731  .00004800  00000+0  32133-3 0  9997
2 60578  97.6704 269.0219 0004831 356.7461   3.3734 15.07390844103418
LEMUR-2-SIERRINI        
1 60579U 24149DR  26188.74495384  .00006743  00000+0  40290-3 0  9993
2 60579  97.6835 271.4333 0006586 109.6866 250.5075 15.11407209103560
LEMUR-2-WILSON          
1 62694U 25009CP  26188.17155792  .00002497  00000+0  23207-3 0  9993
2 62694  97.7021 266.2859 0002598   5.7645 354.3605 14.95258050 80344
LEMUR-2-STAR-FOX        
1 62696U 25009CR  26188.73609468  .00004001  00000+0  30359-3 0  9990
2 62696  97.6925 270.1988 0003327  67.8179 292.3399 15.02784369 80647
LEMUR-2-ARIANNA         
1 62699U 25009CU  26188.73456314  .00004195  00000+0  31804-3 0  9993
2 62699  97.6863 269.9554 0003665  73.0390 287.1237 15.02783669 80640
LEMUR-2-ALISIA          
1 62706U 25009DB  26188.77510575  .00005810  00000+0  43504-3 0  9991
2 62706  97.6954 270.8056 0003474 153.3785 206.7619 15.03098125103257
